{"epoch":1784817359,"count":18317,"objects":[{"id":"60481","name":"FLOCK 4BE 7","type":"PAYLOAD","l1":"1 60481U 24149P   26204.19109157  .00026956  00000-0  63799-3 0  9991","l2":"2 60481  97.3746 287.6020 0004464 129.4646 230.6997 15.41756969107795"},{"id":"60484","name":"FLOCK 4BE 26","type":"PAYLOAD","l1":"1 60484U 24149S   26204.21687948  .00290751  00000-0  14712-2 0  9992","l2":"2 60484  97.3588 292.3547 0003589 217.0378 143.0642 15.80773210108136"},{"id":"60485","name":"TOMORROW-S2","type":"PAYLOAD","l1":"1 60485U 24149T   26204.19795138  .00007727  00000-0  24308-3 0  9993","l2":"2 60485  97.3806 285.0898 0004385 129.5935 230.5695 15.33227349107605"},{"id":"60486","name":"FLOCK 4BE 36","type":"PAYLOAD","l1":"1 60486U 24149U   26204.16869912  .00017889  00000-0  39729-3 0  9996","l2":"2 60486  97.3733 289.0528 0005177 131.0142 229.1555 15.43742236107907"},{"id":"60487","name":"FLOCK 4BE 25","type":"PAYLOAD","l1":"1 60487U 24149V   26204.16685219  .00014702  00000-0  37380-3 0  9995","l2":"2 60487  97.3784 287.5820 0004003 124.9681 235.1941 15.39708480107777"},{"id":"60488","name":"FLOCK 4BE 31","type":"PAYLOAD","l1":"1 60488U 24149W   26204.16408006  .00023010  00000-0  48239-3 0  9990","l2":"2 60488  97.3787 290.0167 0004100 131.4518 228.7083 15.45403836107931"},{"id":"60489","name":"FLOCK 4BE 20","type":"PAYLOAD","l1":"1 60489U 24149X   26204.14779494  .00013056  00000-0  34035-3 0  9999","l2":"2 60489  97.3681 286.3508 0005476 131.4314 228.7403 15.38963054107743"},{"id":"60490","name":"FLOCK 4BE 23","type":"PAYLOAD","l1":"1 60490U 24149Y   26204.14797905  .00014569  00000-0  38495-3 0  9992","l2":"2 60490  97.3764 286.7455 0005110 135.2537 224.9122 15.38524373107727"},{"id":"60491","name":"FLOCK 4BE 15","type":"PAYLOAD","l1":"1 60491U 24149Z   26204.19411874  .00131865  00000-0  12498-2 0  9999","l2":"2 60491  97.3651 291.0938 0004430 177.0388 183.0900 15.66502616108053"},{"id":"60492","name":"FLOCK 4BE 17","type":"PAYLOAD","l1":"1 60492U 24149AA  26204.21139360  .00017250  00000-0  42313-3 0  9991","l2":"2 60492  97.3762 287.8877 0004720 126.8308 233.3372 15.40764656107808"},{"id":"60493","name":"NUSAT-50 (NANCY ROMAN)","type":"PAYLOAD","l1":"1 60493U 24149AB  26204.20107669  .00009163  00000-0  31387-3 0  9991","l2":"2 60493  97.3774 285.2178 0004776  83.0064 277.1720 15.30421995107631"},{"id":"60494","name":"FLOCK 4BE 22","type":"PAYLOAD","l1":"1 60494U 24149AC  26204.22485370  .00025120  00000-0  58428-3 0  9998","l2":"2 60494  97.3723 288.1526 0005172 131.8755 228.2934 15.42290731107858"},{"id":"60495","name":"FLOCK 4BE 34","type":"PAYLOAD","l1":"1 60495U 24149AD  26204.17795893  .00016784  00000-0  39345-3 0  9990","l2":"2 60495  97.3766 288.9487 0005394 139.8061 220.3586 15.42137182107872"},{"id":"60496","name":"TYCHE","type":"PAYLOAD","l1":"1 60496U 24149AE  26204.20366815  .00004036  00000-0  16077-3 0  9997","l2":"2 60496  97.3737 281.5323 0004454 146.7328 213.4191 15.25789781107399"},{"id":"60497","name":"FLOCK 4BE 32","type":"PAYLOAD","l1":"1 60497U 24149AF  26204.18608387  .00019087  00000-0  43001-3 0  9997","l2":"2 60497  97.3709 288.5300 0005353 136.8434 223.3234 15.43301800107882"},{"id":"60498","name":"NUSAT-48 (H. LEAVITT)","type":"PAYLOAD","l1":"1 60498U 24149AG  26203.66765862  .00007475  00000-0  26012-3 0  9993","l2":"2 60498  97.3904 284.9909 0004905 132.1158 228.0500 15.29976514107566"},{"id":"60499","name":"FLOCK 4BE 30","type":"PAYLOAD","l1":"1 60499U 24149AH  26204.20073157  .00258655  00000-0  23001-2 0  9996","l2":"2 60499  97.3731 291.2128 0006222 201.6413 158.4586 15.67688424107392"},{"id":"60500","name":"NUSAT-49(K.VON NEUMANN)","type":"PAYLOAD","l1":"1 60500U 24149AJ  26204.16938123  .00002702  00000-0  96043-4 0  9995","l2":"2 60500  97.3780 285.2115 0002896 148.3571 211.7845 15.29873402107631"},{"id":"60501","name":"FLOCK 4BE 11","type":"PAYLOAD","l1":"1 60501U 24149AK  26204.22681816  .00019682  00000-0  43160-3 0  9993","l2":"2 60501  97.3687 288.8351 0005374 136.9580 223.2090 15.44098653107911"},{"id":"60504","name":"YAM-7","type":"PAYLOAD","l1":"1 60504U 24149AN  26204.17600157  .00007202  00000-0  23364-3 0  9998","l2":"2 60504  97.3770 284.2880 0004437 145.9611 214.1916 15.32262504107560"},{"id":"60505","name":"FLOCK 4BE 24","type":"PAYLOAD","l1":"1 60505U 24149AP  26204.20928948  .00022222  00000-0  48280-3 0  9997","l2":"2 60505  97.3699 289.0906 0005560 146.9804 213.1793 15.44349029107929"},{"id":"60506","name":"LUR-1","type":"PAYLOAD","l1":"1 60506U 24149AQ  26204.20689887  .00006781  00000-0  23229-3 0  9992","l2":"2 60506  97.3723 282.7816 0004742 157.2883 202.8568 15.30523802107485"},{"id":"60507","name":"TANAGER-1 4001","type":"PAYLOAD","l1":"1 60507U 24149AR  26203.53766765  .00000262  00000-0  76110-5 0  9996","l2":"2 60507  97.2319 297.6298 0003600 123.9157 236.2434 15.43942180108494"},{"id":"60508","name":"EAGLEEYE","type":"PAYLOAD","l1":"1 60508U 24149AS  26204.20336240  .00155157  00000-0  88155-3 0  9997","l2":"2 60508  97.3702 299.7300 0004158 173.5924 186.5397 15.78556291108601"},{"id":"60509","name":"FLOCK 4BE 29","type":"PAYLOAD","l1":"1 60509U 24149AT  26204.19247363  .00049504  00000-0  10110-2 0  9996","l2":"2 60509  97.3794 290.6454 0004117 157.3326 202.8106 15.46012232107970"},{"id":"60511","name":"FLOCK 4BE 2","type":"PAYLOAD","l1":"1 60511U 24149AV  26203.20200233  .00077269  00000-0  10795-2 0  9993","l2":"2 60511  97.3818 291.5976 0005374 154.8830 205.2687 15.56583896107945"},{"id":"60512","name":"FLOCK 4BE 13","type":"PAYLOAD","l1":"1 60512U 24149AW  26204.16331916  .00015190  00000-0  34878-3 0  9997","l2":"2 60512  97.3710 288.9698 0005493 132.9968 227.1741 15.42782938107913"},{"id":"60513","name":"FLOCK 4BE 27","type":"PAYLOAD","l1":"1 60513U 24149AX  26204.18453645  .00009907  00000-0  29375-3 0  9999","l2":"2 60513  97.3815 286.0653 0004716 157.3006 202.8447 15.35024754107663"},{"id":"60514","name":"FLOCK 4BE 9","type":"PAYLOAD","l1":"1 60514U 24149AY  26204.18664812  .00018209  00000-0  43122-3 0  9991","l2":"2 60514  97.3782 288.8315 0004219 150.1621 209.9868 15.41818969107867"}]}